[{"OBJECT_NAME":"STARLINK-31463","OBJECT_ID":"2024-056A","EPOCH":"2026-03-09T10:50:31.347744","MEAN_MOTION":15.27565833,"ECCENTRICITY":0.00022948,"INCLINATION":43.0002,"RA_OF_ASC_NODE":228.1026,"ARG_OF_PERICENTER":280.3359,"MEAN_ANOMALY":79.7234,"EPHEMERIS_TYPE":0,"CLASSIFICATION_TYPE":"U","NORAD_CAT_ID":59296,"ELEMENT_SET_NO":999,"REV_AT_EPOCH":11116,"BSTAR":-1.9380749e-5,"MEAN_MOTION_DOT":-7.96e-6,"MEAN_MOTION_DDOT":0},{"OBJECT_NAME":"JINJUSAT-1B","OBJECT_ID":"2025-052A","EPOCH":"2026-03-09T15:55:38.242848","MEAN_MOTION":15.30194857,"ECCENTRICITY":0.00055504,"INCLINATION":97.4113,"RA_OF_ASC_NODE":325.4613,"ARG_OF_PERICENTER":82.193,"MEAN_ANOMALY":277.9941,"EPHEMERIS_TYPE":0,"CLASSIFICATION_TYPE":"U","NORAD_CAT_ID":63210,"ELEMENT_SET_NO":999,"REV_AT_EPOCH":5486,"BSTAR":0.00068430401,"MEAN_MOTION_DOT":0.00019955,"MEAN_MOTION_DDOT":0}]
